[{"OBJECT_NAME":"SHIYAN-20C (SY-20C)","OBJECT_ID":"2022-142A","EPOCH":"2026-03-09T23:50:52.089216","MEAN_MOTION":14.29489925,"ECCENTRICITY":0.00131159,"INCLINATION":59.9943,"RA_OF_ASC_NODE":268.1651,"ARG_OF_PERICENTER":188.0899,"MEAN_ANOMALY":171.9927,"EPHEMERIS_TYPE":0,"CLASSIFICATION_TYPE":"U","NORAD_CAT_ID":54214,"ELEMENT_SET_NO":999,"REV_AT_EPOCH":17551,"BSTAR":7.6576353e-5,"MEAN_MOTION_DOT":6.0e-7,"MEAN_MOTION_DDOT":0},{"OBJECT_NAME":"CZ-6A DEB","OBJECT_ID":"2022-151AY","EPOCH":"2026-03-09T14:35:36.333888","MEAN_MOTION":14.24566398,"ECCENTRICITY":0.0052744,"INCLINATION":98.7633,"RA_OF_ASC_NODE":95.3578,"ARG_OF_PERICENTER":278.6921,"MEAN_ANOMALY":80.8286,"EPHEMERIS_TYPE":0,"CLASSIFICATION_TYPE":"U","NORAD_CAT_ID":54305,"ELEMENT_SET_NO":999,"REV_AT_EPOCH":17212,"BSTAR":0.00019796,"MEAN_MOTION_DOT":4.21e-6,"MEAN_MOTION_DDOT":0}]
